{
  "62429": {
    "noradId": "62429",
    "tle": [
      "1 62429C 24249W   25344.14354167 -.00019608  00000+0 -71009-3 0  3442",
      "2 62429  43.0019  99.7317 0001430 262.9482 302.0992 15.27602476    15"
    ]
  },
  "62432": {
    "noradId": "62432",
    "tle": [
      "1 62432C 24251A   25344.13729167  .00008004  00000+0  26984-3 0  3442",
      "2 62432  53.1599  28.4092 0001445  95.1240  54.9208 15.30175017    10"
    ]
  },
  "62433": {
    "noradId": "62433",
    "tle": [
      "1 62433C 24251B   25344.14006944  .00001984  00000+0  66884-4 0  3449",
      "2 62433  53.1603  31.3783 0001405  87.5889   4.4143 15.30183587    16"
    ]
  },
  "62434": {
    "noradId": "62434",
    "tle": [
      "1 62434C 24251C   25344.14284722  .00006501  00000+0  21912-3 0  3444",
      "2 62434  53.1583  30.9553 0001105  88.8389 227.8556 15.30182005    13"
    ]
  },
  "62435": {
    "noradId": "62435",
    "tle": [
      "1 62435C 24251D   25344.13937500  .00018223  00000+0  61429-3 0  3444",
      "2 62435  53.1601  31.3482 0001330  82.8128  22.8222 15.30168355    11"
    ]
  },
  "62436": {
    "noradId": "62436",
    "tle": [
      "1 62436C 24251E   25344.14354167  .00019724  00000+0  66489-3 0  3446",
      "2 62436  53.1580  31.1932 0001290  81.3946 117.0066 15.30166187    17"
    ]
  },
  "62437": {
    "noradId": "62437",
    "tle": [
      "1 62437C 24251F   25344.13798611 -.00003718  00000+0 -12533-3 0  3441",
      "2 62437  53.1599  28.5620 0001373  87.6918 309.8952 15.30189568    15"
    ]
  },
  "62438": {
    "noradId": "62438",
    "tle": [
      "1 62438C 24251G   25344.13590278  .00021798  00000+0  73493-3 0  3449",
      "2 62438  53.1576  31.1433 0001312  83.3042 113.7297 15.30158621    17"
    ]
  },
  "62439": {
    "noradId": "62439",
    "tle": [
      "1 62439C 24251H   25344.13659722  .00007761  00000+0  26160-3 0  3443",
      "2 62439  53.1597  31.5809 0001413  96.2190 243.5877 15.30178512    18"
    ]
  },
  "62440": {
    "noradId": "62440",
    "tle": [
      "1 62440C 24251J   25344.13729167  .00014805  00000+0  49909-3 0  3449",
      "2 62440  53.1588  30.9300 0001351  92.6781 216.6842 15.30170814    16"
    ]
  },
  "62441": {
    "noradId": "62441",
    "tle": [
      "1 62441C 24251K   25344.14215278  .00014232  00000+0  47912-3 0  3440",
      "2 62441  53.1578  31.1407 0001423  89.1698 130.6265 15.30213324    13"
    ]
  },
  "62442": {
    "noradId": "62442",
    "tle": [
      "1 62442C 24251L   25344.13868056  .00015246  00000+0  51391-3 0  3440",
      "2 62442  53.1587  31.2468 0001431  94.7026  59.4507 15.30172451    10"
    ]
  },
  "62443": {
    "noradId": "62443",
    "tle": [
      "1 62443C 24251M   25344.14284722  .00011605  00000+0  39120-3 0  3445",
      "2 62443  53.1598  31.3106 0001257  83.8219  52.5818 15.30175074    15"
    ]
  },
  "62444": {
    "noradId": "62444",
    "tle": [
      "1 62444C 24251N   25344.13937500 -.00005484  00000+0 -18486-3 0  3446",
      "2 62444  53.1578  28.9581 0001212  82.2403 154.2569 15.30194141    11"
    ]
  },
  "62445": {
    "noradId": "62445",
    "tle": [
      "1 62445C 24251P   25344.14006944  .00011734  00000+0  39553-3 0  3448",
      "2 62445  53.1602  31.5127 0001356  85.0567 297.1549 15.30175697    17"
    ]
  },
  "62446": {
    "noradId": "62446",
    "tle": [
      "1 62446C 24251Q   25344.14284722  .00007362  00000+0  24814-3 0  3447",
      "2 62446  53.1576  31.1219 0001404  91.1169 138.3492 15.30181372    16"
    ]
  },
  "62447": {
    "noradId": "62447",
    "tle": [
      "1 62447C 24251R   25344.13729167  .00003982  00000+0  13424-3 0  3443",
      "2 62447  53.1578  31.0654 0001337  91.6347 147.9235 15.30181909    16"
    ]
  },
  "62448": {
    "noradId": "62448",
    "tle": [
      "1 62448C 24251S   25344.14076389  .00010940  00000+0  36877-3 0  3445",
      "2 62448  53.1580  31.5822 0001295  90.8228 184.8273 15.30174413    18"
    ]
  },
  "62449": {
    "noradId": "62449",
    "tle": [
      "1 62449C 24251T   25344.13937500 -.00023707  00000+0 -79884-3 0  3448",
      "2 62449  53.1578  31.1628 0001521  82.0710 116.5736 15.30222404    17"
    ]
  },
  "62450": {
    "noradId": "62450",
    "tle": [
      "1 62450C 24251U   25344.14284722  .00010091  00000+0  34014-3 0  3448",
      "2 62450  53.1576  31.0853 0001344  82.2397 164.6780 15.30177560    17"
    ]
  },
  "62451": {
    "noradId": "62451",
    "tle": [
      "1 62451C 24251V   25344.13659722  .00011356  00000+0  38278-3 0  3445",
      "2 62451  53.1605  31.4528 0001414  88.0098 315.7784 15.30175727    10"
    ]
  },
  "62452": {
    "noradId": "62452",
    "tle": [
      "1 62452C 24251W   25344.14076389  .00015228  00000+0  51342-3 0  3448",
      "2 62452  53.1594  31.5892 0001346  94.7627 250.5744 15.30165514    14"
    ]
  },
  "62453": {
    "noradId": "62453",
    "tle": [
      "1 62453C 24251X   25344.13868056  .00018444  00000+0  62171-3 0  3443",
      "2 62453  53.1577  31.0720 0001305  93.2847 148.1205 15.30169123    18"
    ]
  },
  "62462": {
    "noradId": "62462",
    "tle": [
      "1 62462C 24254A   25344.16576389  .00015703  00000+0  12205-3 0  3442",
      "2 62462  43.0004  42.9994 0001449 259.3500 223.4124 15.70806397    17"
    ]
  },
  "62463": {
    "noradId": "62463",
    "tle": [
      "1 62463C 24254B   25344.16298611  .00016073  00000+0  12491-3 0  3440",
      "2 62463  43.0002  43.0902 0001499 254.9440 182.0266 15.70808449    13"
    ]
  },
  "62464": {
    "noradId": "62464",
    "tle": [
      "1 62464C 24254C   25344.17062500  .00345690  00000+0  12310-2 0  3447",
      "2 62464  42.9889  39.4556 0008345  48.3734  62.4611 15.87509107    19"
    ]
  },
  "62465": {
    "noradId": "62465",
    "tle": [
      "1 62465C 24254D   25344.16854167  .00007410  00000+0  57592-4 0  3443",
      "2 62465  43.0003  42.8320 0001426 258.9521 299.6516 15.70816381    18"
    ]
  },
  "62466": {
    "noradId": "62466",
    "tle": [
      "1 62466C 24254E   25344.16368056  .00004432  00000+0  34443-4 0  3442",
      "2 62466  43.0003  42.2627 0001437 277.3190 134.2409 15.70822429    17"
    ]
  },
  "62467": {
    "noradId": "62467",
    "tle": [
      "1 62467C 24254F   25344.16506944  .00012289  00000+0  95506-4 0  3449",
      "2 62467  43.0004  42.9261 0001476 269.1741 239.7133 15.70811912    14"
    ]
  },
  "62468": {
    "noradId": "62468",
    "tle": [
      "1 62468C 24254G   25344.16715278  .00005151  00000+0  40031-4 0  3445",
      "2 62468  43.0004  42.6145 0001538 265.9846  14.9380 15.70819321    11"
    ]
  },
  "62469": {
    "noradId": "62469",
    "tle": [
      "1 62469C 24254H   25344.16368056  .00014579  00000+0  11332-3 0  3449",
      "2 62469  43.0004  42.4856 0001470 261.3773  60.0113 15.70807133    17"
    ]
  },
  "62470": {
    "noradId": "62470",
    "tle": [
      "1 62470C 24254J   25344.16506944  .00009218  00000+0  71637-4 0  3440",
      "2 62470  43.0004  42.7009 0001464 257.3553 341.7133 15.70814580    11"
    ]
  },
  "62471": {
    "noradId": "62471",
    "tle": [
      "1 62471C 24254K   25344.16298611  .00013994  00000+0  10877-3 0  3444",
      "2 62471  43.0004  42.6511 0001492 264.8657 347.3179 15.70807229    12"
    ]
  },
  "62472": {
    "noradId": "62472",
    "tle": [
      "1 62472C 24254L   25344.16645833  .00012338  00000+0  95878-4 0  3443",
      "2 62472  43.0004  42.3178 0001524 266.2996 130.9358 15.70813841    19"
    ]
  },
  "62473": {
    "noradId": "62473",
    "tle": [
      "1 62473C 24254M   25344.16506944  .00004579  00000+0  35586-4 0  3441",
      "2 62473  43.0003  42.7742 0001472 254.8742 314.1333 15.70819471    18"
    ]
  },
  "62474": {
    "noradId": "62474",
    "tle": [
      "1 62474C 24254N   25344.16506944  .00010266  00000+0  79794-4 0  3441",
      "2 62474  43.0005  42.5492 0001612 271.3780  27.8214 15.70810770    12"
    ]
  },
  "62475": {
    "noradId": "62475",
    "tle": [
      "1 62475C 24254P   25344.13729167  .00008245  00000+0  29868-3 0  3443",
      "2 62475  43.0025 165.4193 0001489 272.6833 281.5225 15.27564850    11"
    ]
  },
  "62476": {
    "noradId": "62476",
    "tle": [
      "1 62476C 24254Q   25344.13868056  .00007115  00000+0  25755-3 0  3441",
      "2 62476  42.9994 162.2524 0001582 260.3636 171.3826 15.27589766    13"
    ]
  },
  "62477": {
    "noradId": "62477",
    "tle": [
      "1 62477C 24254R   25344.14145833  .00007607  00000+0  27560-3 0  3446",
      "2 62477  43.0023 161.7126 0001410 276.1609  30.3058 15.27563546    15"
    ]
  },
  "62478": {
    "noradId": "62478",
    "tle": [
      "1 62478C 24254S   25344.14215278  .00007662  00000+0  27749-3 0  3448",
      "2 62478  43.0002 162.0918 0001411 266.7079 240.8294 15.27575631    11"
    ]
  },
  "62479": {
    "noradId": "62479",
    "tle": [
      "1 62479C 24254T   25344.14215278  .00005683  00000+0  20589-3 0  3445",
      "2 62479  43.0021 154.5129 0001423 271.5729 153.6472 15.27565772    16"
    ]
  },
  "62480": {
    "noradId": "62480",
    "tle": [
      "1 62480C 24254U   25344.13937500  .00006610  00000+0  23945-3 0  3445",
      "2 62480  43.0016 161.6230 0001371 272.1281  65.3193 15.27564902    19"
    ]
  },
  "62481": {
    "noradId": "62481",
    "tle": [
      "1 62481C 24254V   25344.13729167  .00005576  00000+0  20190-3 0  3443",
      "2 62481  43.0028 161.8374 0001492 272.5781 328.4503 15.27580679    14"
    ]
  },
  "62482": {
    "noradId": "62482",
    "tle": [
      "1 62482C 24254W   25344.13798611  .00006835  00000+0  24744-3 0  3442",
      "2 62482  43.0024 165.3273 0001426 266.6245 326.7563 15.27587427    19"
    ]
  },
  "62487": {
    "noradId": "62487",
    "tle": [
      "1 62487C 25003A   25344.14354167 -.00024559  00000+0 -88943-3 0  3441",
      "2 62487  43.0020  74.7509 0001393 277.0324 164.1924 15.27605790    11"
    ]
  }
}